[{"OBJECT_NAME":"STARLINK-34269","OBJECT_ID":"2025-127S","EPOCH":"2026-03-09T07:34:03.578016","MEAN_MOTION":15.27595807,"ECCENTRICITY":9.079e-5,"INCLINATION":42.9955,"RA_OF_ASC_NODE":181.5617,"ARG_OF_PERICENTER":307.1563,"MEAN_ANOMALY":52.9205,"EPHEMERIS_TYPE":0,"CLASSIFICATION_TYPE":"U","NORAD_CAT_ID":64386,"ELEMENT_SET_NO":999,"REV_AT_EPOCH":4241,"BSTAR":0.001338187,"MEAN_MOTION_DOT":0.00036763,"MEAN_MOTION_DDOT":0},{"OBJECT_NAME":"FENGYUN 1C DEB","OBJECT_ID":"1999-025AQG","EPOCH":"2026-03-09T10:43:06.043872","MEAN_MOTION":15.25746961,"ECCENTRICITY":0.00178142,"INCLINATION":98.9311,"RA_OF_ASC_NODE":250.2123,"ARG_OF_PERICENTER":328.3876,"MEAN_ANOMALY":31.6286,"EPHEMERIS_TYPE":0,"CLASSIFICATION_TYPE":"U","NORAD_CAT_ID":30674,"ELEMENT_SET_NO":999,"REV_AT_EPOCH":98658,"BSTAR":0.015201752,"MEAN_MOTION_DOT":0.00411052,"MEAN_MOTION_DDOT":0}]
